KUIPER-00074            
1 64821U 25151F   25300.50002315  .00035117  00000+0  46142-2 0  9996
2 64821  51.8995 159.5473 0012488 182.3217 353.2893 14.79857592  3891
KUIPER-00075            
1 64822U 25151G   25300.30660145  .00036725  00000+0  92579-3 0  9998
2 64822  51.8754 149.5059 0006277 144.8303 215.3100 15.39505998 15846
KUIPER-00076            
1 64823U 25151H   25300.32930124  .00001502  00000+0  22648-3 0  9993
2 64823  51.8998 162.8011 0003784 175.3809 184.7189 14.79861615 15663
KUIPER-00077            
1 64824U 25151J   25299.91861075  .00004634  00000+0  63707-3 0  9994
2 64824  51.9001 169.6159 0006621 130.5626 229.5913 14.79894544 15537
KUIPER-00078            
1 64825U 25151K   25300.36015387 -.00002196  00000+0 -25893-3 0  9991
2 64825  51.8977 165.1642 0007212 195.7396 164.3343 14.79918173 15630
KUIPER-00079            
1 64826U 25151L   25299.95416516 -.00001504  00000+0 -16769-3 0  9997
2 64826  51.8990 171.6507 0012136 153.2684 206.8906 14.79940137 16709
KUIPER-00080            
1 64827U 25151M   25300.35474951  .00004994  00000+0  68353-3 0  9992
2 64827  51.8980 170.1796 0005518 170.2917 189.8153 14.79934444 15568
KUIPER-00082            
1 64828U 25151N   25300.50002315 -.00659403  00000+0 -82537-1 0  9992
2 64828  51.9003 157.0920 0004874 184.2979 310.6922 14.84303596  3082
KUIPER-00083            
1 64829U 25151P   25300.32640287 -.00000034  00000+0  24955-4 0  9991
2 64829  51.8992 165.3124 0010791 159.1809 200.9595 14.79921031 16811
KUIPER-00084            
1 64830U 25151Q   25300.38322043  .00005332  00000+0  72737-3 0  9991
2 64830  51.8983 175.0488 0012160 133.2778 226.9201 14.79935604 15490
KUIPER-00085            
1 64831U 25151R   25300.50002315  .00021307  00000+0  25665-2 0  9990
2 64831  51.8978 157.1053 0006863 155.6055 171.7904 14.83786162  5228
KUIPER-00086            
1 64832U 25151S   25300.35759794  .00004207  00000+0  58087-3 0  9999
2 64832  51.9004 167.6749 0011520 153.7846 206.3702 14.79892912 15599
KUIPER-00087            
1 64833U 25151T   25300.50002315 -.01363586  00000+0 -89336-1 0  9997
2 64833  51.8849 151.8260 0003709 197.0964   7.9815 15.10313763  2731
KUIPER-00089            
1 64834U 25151U   25300.50002315 -.00023544  00000+0 -21762-2 0  9994
2 64834  51.8951 155.0228 0006004 205.4512 230.2340 14.93866539  3391
KUIPER-00090            
1 64835U 25151V   25300.50002315  .00044062  00000+0  22758-2 0  9997
2 64835  51.8904 151.1417 0004175 214.3109 265.4610 15.15862309  5539
KUIPER-00091            
1 64836U 25151W   25300.50002315 -.01385955  00000+0 -10901+0 0  9994
2 64836  51.8879 153.3038 0008490 192.1281 259.7901 15.03622809  2422
KUIPER-00092            
1 64837U 25151X   25300.50002315  .00044592  00000+0  57589-2 0  9997
2 64837  51.9004 159.5391 0006937 156.7341 202.7632 14.80504919  3897
KUIPER-00093            
1 64838U 25151Y   25300.36285532  .00001255  00000+0  19377-3 0  9999
2 64838  51.8974 162.6499 0014183 166.0159 194.1199 14.79939784 15660
KUIPER-00094            
1 64839U 25151Z   25299.81657331  .00010256  00000+0  73709-3 0  9997
2 64839  51.8874 157.8813 0006689 174.7224 185.3821 15.04773006 15685
KUIPER-00081            
1 65132U 25171A   25300.51860972  .00054409  00000+0  14259-2 0  9995
2 65132  51.8761  32.7495 0005137  30.8520 329.2768 15.38143201 13099
KUIPER-00088            
1 65133U 25171B   25300.50002315 -.01031543  00000+0 -75952-1 0  9997
2 65133  51.8914  36.2529 0007158  43.8259 343.0056 15.05685329  3869
KUIPER-00095            
1 65134U 25171C   25300.54974322  .00023062  00000+0  62254-3 0  9995
2 65134  51.8736  32.9459 0005005  53.1845 306.9601 15.37657555 13096
KUIPER-00096            
1 65135U 25171D   25300.50002315 -.00644672  00000+0 -23939-1 0  9999
2 65135  51.8792  33.4235 0007755  62.0489 267.2238 15.29374428  5928
KUIPER-00097            
1 65136U 25171E   25300.50002315 -.00001184  00000+0 -41565-4 0  9993
2 65136  51.8880  34.4876 0005801  46.0046  78.1058 15.18309650  4819
KUIPER-00098            
1 65137U 25171F   25300.50002315 -.00471337  00000+0 -27412-1 0  9997
2 65137  51.8932  35.0478 0006719  42.5211 214.7717 15.13873934  5892
KUIPER-00099            
1 65138U 25171G   25300.50002315 -.00576332  00000+0 -17542-1 0  9992
2 65138  51.8781  32.9064 0007514  43.2918 191.1008 15.35782085  5619
KUIPER-00100            
1 65139U 25171H   25300.53136639  .00039211  00000+0  10321-2 0  9990
2 65139  51.8771  32.8288 0005500  36.3310 323.8049 15.38153803 13080
KUIPER-00102            
1 65140U 25171J   25300.54925285  .00035200  00000+0  93829-3 0  9995
2 65140  51.8755  32.9422 0005655  48.0258 312.1210 15.37815420 13087
KUIPER-00103            
1 65141U 25171K   25300.50002315 -.01055253  00000+0 -11848+0 0  9992
2 65141  51.8975  39.7441 0006892  56.7278  44.6706 14.89547461  2976
KUIPER-00104            
1 65142U 25171L   25300.50002315 -.00053141  00000+0 -19803-2 0  9998
2 65142  51.8834  33.6416 0006112  50.2216 205.0637 15.26948859  4912
KUIPER-00105            
1 65143U 25171M   25300.50002315  .00001175  00000+0  99988-4 0  9991
2 65143  51.8855  36.4406 0009857  18.6231 188.8625 15.05545523  5723
KUIPER-00106            
1 65144U 25171N   25300.49621661  .00008800  00000+0  80352-3 0  9997
2 65144  51.8948  39.6929 0009059  17.4011 342.7266 14.95698880 12991
KUIPER-00107            
1 65145U 25171P   25300.53243365  .00032893  00000+0  87326-3 0  9991
2 65145  51.8758  32.8459 0005323  40.7321 319.4063 15.37974925 13099
KUIPER-00108            
1 65146U 25171Q   25300.50002315 -.00258122  00000+0 -12281-1 0  9990
2 65146  51.8853  34.2779 0006794  38.5816 237.8833 15.19837374  4661
KUIPER-00109            
1 65147U 25171R   25300.50002315  .00000813  00000+0  37041-4 0  9995
2 65147  51.8777  33.1096 0009061  34.2550 105.2054 15.32717081  5127
KUIPER-00110            
1 65148U 25171S   25300.50002315 -.01444502  00000+0 -13332+0 0  9998
2 65148  51.8917  38.0169 0009813  27.8297 103.0559 14.97697676  5640
KUIPER-00111            
1 65149U 25171T   25300.50002315 -.00039908  00000+0 -50843-2 0  9999
2 65149  51.8987  42.0528 0008156  41.4989 355.2417 14.81140645  5344
KUIPER-00112            
1 65150U 25171U   25300.50002315 -.00925455  00000+0 -31740-1 0  9996
2 65150  51.8782  33.3198 0008085  72.7974 311.3832 15.32421072  4770
KUIPER-00114            
1 65151U 25171V   25300.48977479  .00004836  00000+0  66115-3 0  9991
2 65151  51.9009  44.6197 0005450  42.1299 318.0082 14.80047337 12918
KUIPER-00115            
1 65152U 25171W   25300.50002315 -.00379825  00000+0 -34341-1 0  9992
2 65152  51.9203  37.8489 0010921  50.3317 267.4944 14.97048095  5752
KUIPER-00116            
1 65153U 25171X   25300.50002315 -.00043677  00000+0 -52788-2 0  9992
2 65153  51.8994  42.1090 0008807   8.4426 219.0541 14.83365641  5807
KUIPER-00118            
1 65154U 25171Y   25299.71317042 -.00005637  00000+0 -71007-3 0  9999
2 65154  51.9018  48.0257 0001695  61.8625 298.2508 14.79987806 12806
KUIPER-00119            
1 65155U 25171Z   25300.50002315 -.00993470  00000+0 -60889-1 0  9999
2 65155  51.8858  35.2404 0007059  14.6596  81.9600 15.12691853  4299
KUIPER-00120            
1 65762U 25217A   25300.50002315  .00026947  00000+0  10373-2 0  9992
2 65762  51.8691 288.7188 0009857 220.0507  53.5675 15.26141723  5913
KUIPER-00132            
1 65763U 25217B   25300.26956015  .00047030  00000+0  13261-2 0  9996
2 65763  51.8638 289.2798 0005635 210.7924 149.2732 15.35935452  4890
KUIPER-00133            
1 65764U 25217C   25300.50002315  .00036633  00000+0  13313-2 0  9994
2 65764  51.8708 288.6525 0007522 225.5112 107.4722 15.27905946  5566
KUIPER-00139            
1 65765U 25217D   25300.27384133  .00034627  00000+0  98860-3 0  9992
2 65765  51.8664 289.3139 0006287 211.7881 148.2726 15.35684581  4894
KUIPER-00142            
1 65766U 25217E   25300.24992897  .00021849  00000+0  60642-3 0  9991
2 65766  51.8708 289.1641 0002965 163.4542 196.6542 15.36833600  4898
KUIPER-00145            
1 65767U 25217F   25300.51395758  .00030952  00000+0  86038-3 0  9997
2 65767  51.8713 287.9335 0003201 186.7908 173.3035 15.36587421  4930
KUIPER-00147            
1 65768U 25217G   25300.46718326  .00029420  00000+0  83936-3 0  9994
2 65768  51.8656 288.3557 0005879 208.0200 152.0470 15.35790581  4922
KUIPER-00148            
1 65769U 25217H   25300.41735375  .00015747  00000+0  46696-3 0  9992
2 65769  51.8614 288.7552 0009080 224.4583 135.5675 15.34962107  4916
KUIPER-00150            
1 65770U 25217J   25300.50002315 -.00522067  00000+0 -18297-1 0  9999
2 65770  51.8623 288.3818 0008757 227.5613 212.6258 15.31107758  4483
KUIPER-00151            
1 65771U 25217K   25300.45282606  .00039845  00000+0  11061-2 0  9995
2 65771  51.8693 288.2714 0006079 184.6644 175.4287 15.36493867  4928
KUIPER-00152            
1 65772U 25217L   25300.23476324  .00029844  00000+0  80512-3 0  9990
2 65772  51.8741 289.0642 0002806 105.1934 254.9364 15.37537667  4899
KUIPER-00153            
1 65773U 25217M   25300.50002315  .00047929  00000+0  15879-2 0  9993
2 65773  51.8658 288.3710 0006754 224.5178 238.0065 15.30798860  4570
KUIPER-00155            
1 65774U 25217N   25300.52547206  .00034492  00000+0  97594-3 0  9995
2 65774  51.8660 288.0014 0005211 202.4720 157.6038 15.35973217  4935
KUIPER-00156            
1 65775U 25217P   25300.43544117  .00038465  00000+0  10397-2 0  9993
2 65775  51.8734 288.1598 0002411 135.5945 224.5236 15.37352143  4924
KUIPER-00158            
1 65776U 25217Q   25300.45528042  .00048355  00000+0  13450-2 0  9997
2 65776  51.8702 288.2879 0004735 192.7042 167.3826 15.36351860  4920
KUIPER-00163            
1 65777U 25217R   25300.53749003  .00029444  00000+0  84794-3 0  9997
2 65777  51.8627 288.0666 0007081 217.6137 142.4354 15.35490305  4936
